#dP2022  5 16  0  0  0.00000000      97 __u+U IGS14 FIT  IAC
## 2210  86400.00000000   900.00000000 59715 0.0000000000000
+  115   C06C07C08C09C10C11C12C13C14C16C19C20C21C22C23C24C25
+        C26C27C28C29C30C32C33C34C35C36C37C38C39C40C41C42C43
+        C44C45C46E02E03E04E05E07E08E09E10E11E12E13E14E15E18
+        E19E21E24E25E26E27E30E31E33E34E36G01G02G03G04G05G06
+        G07G08G09G10G12G13G14G15G16G17G18G19G20G21G22G23G24
+        G25G26G27G28G29G30G31G32J02J03R01R02R03R04R05R07R08
+        R09R11R12R13R14R15R17R18R19R20R21R22R24  0  0  0  0
++         7  7  7  7  7  6  6  7  6  7  6  6  5  6  5  5  6
++         6  6  5  6  5  6  5  5  6  6  5  7  6  6  6  6  6
++         6  6  6  4  4  4  4  4  4  4  4  4  4  4  5  4  4
++         4  4  4  4  4  4  4  4  4  4  4  3  3  3  3  3  3
++         4  3  3  3  4  3  4  3  3  4  3  4  3  3  3  3  3
++         3  3  3  4  3  3  3  3  9  9  7  6  6  6  6  6  6
++         6  6  6  6  6  6  6  6  7  7  6  7  6  0  0  0  0
%c M  cc GPS ccc cccc cccc cccc cccc ccccc ccccc ccccc ccccc
%c cc cc ccc ccc cccc cccc cccc cccc ccccc ccccc ccccc ccccc
%f  1.2500000  1.025000000  0.00000000000  0.000000000000000
%f  0.0000000  0.000000000  0.00000000000  0.000000000000000
%i    0    0    0    0      0      0      0      0         0
%i    0    0    0    0      0      0      0      0         0
/* INFORMATION & ANALYSIS CENTER (IAC)            FINAL DATA
/* S/V CLOCKS ARE ALIGNED TO GNSS TIME                      
/* G:C1WC2W R:C1PC2P E:C1XC5X C:C2IC6I J:C1CC2S             
/* PCV:IGS14_2196 OL/AL:FES2004  NONE     YN ORB:CoN CLK:CoN
*  2022 05 16  7  0  0.00000000
PC06  -6896.202694  23700.642486 -34165.906475     -5.566443
PC07 -17170.704131  36157.044251  13012.433045   -172.729757
PC08  -1943.188254  37401.500520  19517.552958    315.270093
PC09   2313.277615  25809.157771 -32797.076057   -792.046188
PC10  -9489.213151  35967.919478  19655.540343    132.012126
PC11  -6482.930071 -16496.562716 -21488.983194    355.212719
PC12  13657.740796 -11092.869759 -21634.246587   -615.374468
PC13   3191.309227  40285.374012  12612.090184    -31.441550
PC14   2950.844254 -21103.226680  18077.197745    476.049065
PC16 -10317.049197  21939.142192 -34333.989935    131.737187
PC19   6258.481949  15564.521660 -22265.211796    869.484038
PC20 -10158.278603  22828.229916 -12371.252852   -916.981735
PC21  21569.085805 -16813.287037  -5605.774229   -299.793730
PC22  19768.488152  -1000.429945 -19677.388164   -970.018082
PC23 -17316.180267 -10171.309065 -19370.761078   -930.155491
PC24   2189.272285 -24916.423515  12344.318022   -965.062806
PC25 -12003.215235 -24473.500923  -5934.053455   -735.968168
PC26  12769.421518 -11710.986273  21859.336915    737.179424
PC27 -21520.411610   6196.762770  16636.508986    723.948160
PC28 -27123.530714  -6485.427354    998.152063     67.315209
PC29  17233.824741  15154.865360  15861.736659    555.313413
PC30  -3675.086477  15482.273750  22913.007145    498.558286
PC32 -21458.669482  16896.228164   5707.503466   -963.368153
PC33  -6280.160006 -15646.847836  22251.123002   -965.884291
PC34   2485.335040 -15797.435573 -22885.534868   -402.475672
PC35  27196.665883   6165.126149    -25.982985    276.234145
PC36  11160.953747  24992.718288   5465.720102   -964.326512
PC37 -13559.464214  10238.645523 -22124.599241   -911.609428
PC38  -7608.851134  33412.533452  24689.673495    232.481231
PC39 -16279.321674  20087.422384 -33310.590157     34.980942
PC40 -24615.506544  32178.952941  11350.637048    269.454307
PC41 -19558.964211    519.357452  19951.775888   -965.998256
PC42  10944.227165 -22963.659532  11550.084876   -970.198577
PC43 -16535.349990 -15501.612850 -16309.255951   -923.832449
PC44  21406.370292  -6973.290801 -16482.963467    661.169066
PC45  17243.504513   9897.743485  19592.444401    758.280370
PC46  -1007.059475  25590.583071 -11123.274948   -327.146731
PE02 -15397.821384  20522.700174 -14778.962548    299.474785
PE03 -23786.591582  14437.429396 -10071.588705   -558.755092
PE04   5693.710616 -18300.463637  22570.246902  -1028.976267
PE05 -28252.282944   2001.104389   8604.366339   -181.182589
PE07  16232.209340  11388.223934 -21968.645544   -668.974520
PE08  -5353.925862  18156.472611 -22745.261570   -529.921410
PE09 -16313.566002 -11166.414117  22034.504545   -519.931102
PE10 -13411.038627 -23370.799119 -12266.513548   -513.320137
PE11 -20387.431830 -21345.754426  -2369.892975   3655.501261
PE12  -4529.658813 -21750.842762 -19577.409022   4611.393756
PE13  20073.303824  21530.559091   3049.853556    428.708095
PE14 -11785.491705  13722.074142  14881.917054  -1836.217286
PE15   4462.276495  21621.595012  19711.787777    745.373165
PE18  14380.690738 -19474.009641 -21731.630057  -1443.296726
PE19  25289.492575 -13183.006128   7937.627813  -4746.514372
PE21  17160.028156  -1267.746869  24082.767840   -734.461356
PE24  -8439.006836 -20784.234991 -19315.320150   -617.573707
PE25 -17116.266157    960.140549 -24127.533018   -574.107313
PE26  23631.232493   7957.934810 -15949.803106  -1150.181508
PE27   9184.634402  19790.728528  20008.577754   -299.872781
PE30  -4912.889629  29016.282838   3236.098116   -514.275107
PE31   4126.818740 -29007.975756  -4189.940475   -496.701687
PE33  13685.143671  -8976.027022 -24664.546881   -456.590217
PE34 -13518.806280   9158.421916  24677.904980   -517.291784
PE36 -23784.918861  -8812.490740  15266.453793   -374.331523
PG01 -20186.147485 -11162.128806  13178.883071    361.942671
PG02  13673.388751  21595.190127   7571.751879   -653.240911
PG03 -15144.388316  -1474.456665  21649.270054   -245.923478
PG04 -25485.368232  -1777.996140   7435.032677   -166.790872
PG05   8370.289250  16884.043967 -18821.745417    -82.020093
PG06    498.683331  19442.360515  18112.923995    305.242868
PG07 -15384.689589   4669.013223 -20815.805332    322.106117
PG08 -20772.965899  -6855.049809 -15349.989065    -68.211213
PG09 -25506.077312   6928.303249  -2842.343987   -336.367264
PG10  11499.578612 -23394.232636  -4042.160066   -416.358377
PG12  13272.811112   6795.544107  21712.858326   -216.201379
PG13  12336.626125  13144.273091 -19715.218728    312.446024
PG14 -13216.119463  22403.742228  -5135.216510   -108.486528
PG15  21869.102730   4921.940720 -14894.938980    -60.875900
PG16  -2845.278550 -20544.129990 -16593.755028   -501.272814
PG17 -15118.756062  13534.964820  17593.311214    613.217118
PG18  15306.026580  -4159.828183 -21329.348124    168.832386
PG19  -7423.596853  14455.335299  20702.505003    157.953387
PG20   2795.812455  24416.301652 -10359.159106    514.929231
PG21 -20740.590364 -16728.398733   4530.972426    161.096363
PG22   3925.511775 -15493.521597  21604.276370    259.909052
PG23  15620.712151 -16270.765227 -13952.688322    -22.181630
PG24  21613.431736  12943.334042   8742.064081    240.205250
PG25  16806.348187  -9072.737063  18053.591029    325.306232
PG26   3116.329959 -25499.434848  -6161.519225    205.943397
PG27  -9074.836817 -13267.701059 -21424.186510    203.577665
PG28  -8548.749449  24964.294270   4481.644321    357.076406
PG29  26113.956480  -4290.324527  -2709.000881   -514.134514
PG30  -8397.981453  14020.235959 -20816.363994   -528.066311
PG31  -2022.721309 -20790.223900  15998.300174   -177.812067
PG32  12088.946805 -15174.551122  18199.518452   -128.214949
PJ02 -22149.453616  32051.765736 -11352.401213     -0.146656
PJ03 -27667.553201  22649.391634  27459.627135     -2.185689
PR01   5468.290366 -15702.521288  19357.370600      8.766174
PR02 -12344.652953  -4020.081967  22016.146299    518.526482
PR03 -21367.663376   8877.436872  10845.441435     56.729477
PR04 -18429.225653  16511.483151  -6178.565714    141.741905
PR05  -5422.354140  15109.114591 -19813.823578     92.958488
PR07  21445.460225  -9362.700694 -10056.383861     35.146249
PR08  18208.040997 -16664.450850   6452.117244    -65.150882
PR09  10185.657285  16376.840283  16669.394893     55.301415
PR11   5901.969071 -18363.146811  16710.909778     38.886019
PR12  -2771.162477 -25344.772465   -429.455759     18.470051
PR13  -9591.361748 -17573.167696 -15822.566896    -22.365341
PR14 -10983.467220   1704.128024 -22947.802258     25.692132
PR15  -5838.069208  18949.446562 -16026.204827     96.093050
PR17 -22136.946472  -4324.240598  11881.753772    526.474046
PR18 -10965.656323   5871.817513  22287.272845    117.019713
PR19   4546.133518  12978.904031  21476.612780   -189.170308
PR20  20626.698221  13598.175593   6255.298944    -70.664979
PR21  21556.299320   3585.654964 -13183.662711   -301.628166
PR22  10055.408112  -6334.572570 -22574.889980   -183.455908
PR24 -21242.941705 -12994.839383  -5493.883825     93.975021
EOF
